FLOCK 4BE-17            
1 60492U 24149AA  26202.13309795  .00012178  00000+0  30028-3 0  9994
2 60492  97.3758 285.7910 0004661 131.8065 228.3581 15.40688176107480
FLOCK 4BE-22            
1 60494U 24149AC  26202.14860110  .00032273  00000+0  75128-3 0  9998
2 60494  97.3718 286.0538 0005064 138.7121 221.4511 15.42215829107531
FLOCK 4BE-34            
1 60495U 24149AD  26202.16640410  .00012370  00000+0  29134-3 0  9992
2 60495  97.3767 286.9148 0005275 145.4969 214.6621 15.42068261107566
FLOCK 4BE-32            
1 60497U 24149AF  26202.04635588  .00014192  00000+0  32131-3 0  9996
2 60497  97.3705 286.3647 0005355 143.0288 217.1330 15.43218981107556
FLOCK 4BE-11            
1 60501U 24149AK  26202.15299934  .00014502  00000+0  31963-3 0  9992
2 60501  97.3684 286.7343 0005329 142.1541 218.0083 15.44015179107592
FLOCK 4BE-24            
1 60505U 24149AP  26202.13579871  .00016029  00000+0  35018-3 0  9996
2 60505  97.3698 286.9890 0005476 152.9608 207.1926 15.44253426107602
FLOCK 4BE-29            
1 60509U 24149AT  26202.18586905  .00035460  00000+0  73108-3 0  9993
2 60509  97.3794 288.6041 0004124 162.0588 198.0808 15.45808063107665
FLOCK 4BE-2             
1 60511U 24149AV  26201.98050178  .00056508  00000+0  79713-3 0  9995
2 60511  97.3817 290.3344 0005476 157.8276 202.3216 15.56404659107754
FLOCK 4BE-13            
1 60512U 24149AW  26202.15260922  .00010902  00000+0  25153-3 0  9993
2 60512  97.3708 286.9361 0005456 138.8058 221.3602 15.42721630107609
FLOCK 4BE-27            
1 60513U 24149AX  26202.03330931  .00007014  00000+0  20902-3 0  9996
2 60513  97.3814 283.9121 0004476 163.6845 196.4543 15.34982443107338
FLOCK 4BE-9             
1 60514U 24149AY  26201.97996405  .00013607  00000+0  32377-3 0  9997
2 60514  97.3780 286.6010 0004096 157.0272 203.1159 15.41741990107525
FLOCK 4BE-6             
1 60516U 24149BA  26202.16627347  .00011929  00000+0  29671-3 0  9995
2 60516  97.3774 286.0820 0004720 155.7618 204.3852 15.40426856107507
FLOCK 4BE-14            
1 60517U 24149BB  26201.92253309  .00012724  00000+0  30051-3 0  9990
2 60517  97.3683 286.0047 0005821 159.6283 200.5198 15.41975158107520
FLOCK 4BE-1             
1 60518U 24149BC  26202.16204069  .00014009  00000+0  31272-3 0  9991
2 60518  97.3765 287.6479 0005476 158.4297 201.7182 15.43644930107615
FLOCK 4BE-28            
1 60519U 24149BD  26201.73314536  .00029481  00000+0  59237-3 0  9996
2 60519  97.3733 288.0500 0005538 159.3372 200.8102 15.46590317107629
FLOCK 4BE-5             
1 60559U 24149CV  26202.12374931  .00012649  00000+0  30695-3 0  9994
2 60559  97.3832 286.4708 0004486 154.8466 205.3000 15.41162607107506
