{"fetched_at":"2026-07-21T17:53:07.094Z","source":"https://celestrak.org/NORAD/elements/gp.php?GROUP=planet&FORMAT=JSON","constellation":"superdove","records":[{"OBJECT_NAME":"FLOCK 4BE-17","OBJECT_ID":"2024-149AA","EPOCH":"2026-07-21T03:11:39.662880","CLASSIFICATION_TYPE":"U","MEAN_MOTION":15.40688176,"ECCENTRICITY":0.00046616,"INCLINATION":97.3758,"RA_OF_ASC_NODE":285.791,"ARG_OF_PERICENTER":131.8065,"MEAN_ANOMALY":228.3581,"EPHEMERIS_TYPE":0,"NORAD_CAT_ID":60492,"ELEMENT_SET_NO":999,"REV_AT_EPOCH":10748,"BSTAR":0.00030027559,"MEAN_MOTION_DOT":0.00012178,"MEAN_MOTION_DDOT":0},{"OBJECT_NAME":"FLOCK 4BE-22","OBJECT_ID":"2024-149AC","EPOCH":"2026-07-21T03:33:59.135040","CLASSIFICATION_TYPE":"U","MEAN_MOTION":15.42215829,"ECCENTRICITY":0.00050647,"INCLINATION":97.3718,"RA_OF_ASC_NODE":286.0538,"ARG_OF_PERICENTER":138.7121,"MEAN_ANOMALY":221.4511,"EPHEMERIS_TYPE":0,"NORAD_CAT_ID":60494,"ELEMENT_SET_NO":999,"REV_AT_EPOCH":10753,"BSTAR":0.00075127947,"MEAN_MOTION_DOT":0.00032273,"MEAN_MOTION_DDOT":0},{"OBJECT_NAME":"FLOCK 4BE-34","OBJECT_ID":"2024-149AD","EPOCH":"2026-07-21T03:59:37.314240","CLASSIFICATION_TYPE":"U","MEAN_MOTION":15.42068261,"ECCENTRICITY":0.00052758,"INCLINATION":97.3767,"RA_OF_ASC_NODE":286.9148,"ARG_OF_PERICENTER":145.4969,"MEAN_ANOMALY":214.6621,"EPHEMERIS_TYPE":0,"NORAD_CAT_ID":60495,"ELEMENT_SET_NO":999,"REV_AT_EPOCH":10756,"BSTAR":0.00029133974,"MEAN_MOTION_DOT":0.0001237,"MEAN_MOTION_DDOT":0},{"OBJECT_NAME":"FLOCK 4BE-32","OBJECT_ID":"2024-149AF","EPOCH":"2026-07-21T01:06:45.148032","CLASSIFICATION_TYPE":"U","MEAN_MOTION":15.43218981,"ECCENTRICITY":0.00053553,"INCLINATION":97.3705,"RA_OF_ASC_NODE":286.3647,"ARG_OF_PERICENTER":143.0288,"MEAN_ANOMALY":217.133,"EPHEMERIS_TYPE":0,"NORAD_CAT_ID":60497,"ELEMENT_SET_NO":999,"REV_AT_EPOCH":10755,"BSTAR":0.00032131472,"MEAN_MOTION_DOT":0.00014192,"MEAN_MOTION_DDOT":0},{"OBJECT_NAME":"FLOCK 4BE-11","OBJECT_ID":"2024-149AK","EPOCH":"2026-07-21T03:40:19.142976","CLASSIFICATION_TYPE":"U","MEAN_MOTION":15.44015179,"ECCENTRICITY":0.00053292,"INCLINATION":97.3684,"RA_OF_ASC_NODE":286.7343,"ARG_OF_PERICENTER":142.1541,"MEAN_ANOMALY":218.0083,"EPHEMERIS_TYPE":0,"NORAD_CAT_ID":60501,"ELEMENT_SET_NO":999,"REV_AT_EPOCH":10759,"BSTAR":0.00031962522,"MEAN_MOTION_DOT":0.00014502,"MEAN_MOTION_DDOT":0},{"OBJECT_NAME":"FLOCK 4BE-24","OBJECT_ID":"2024-149AP","EPOCH":"2026-07-21T03:15:33.008544","CLASSIFICATION_TYPE":"U","MEAN_MOTION":15.44253426,"ECCENTRICITY":0.00054762,"INCLINATION":97.3698,"RA_OF_ASC_NODE":286.989,"ARG_OF_PERICENTER":152.9608,"MEAN_ANOMALY":207.1926,"EPHEMERIS_TYPE":0,"NORAD_CAT_ID":60505,"ELEMENT_SET_NO":999,"REV_AT_EPOCH":10760,"BSTAR":0.00035018051,"MEAN_MOTION_DOT":0.00016029,"MEAN_MOTION_DDOT":0},{"OBJECT_NAME":"FLOCK 4BE-29","OBJECT_ID":"2024-149AT","EPOCH":"2026-07-21T04:27:39.085920","CLASSIFICATION_TYPE":"U","MEAN_MOTION":15.45808063,"ECCENTRICITY":0.00041243,"INCLINATION":97.3794,"RA_OF_ASC_NODE":288.6041,"ARG_OF_PERICENTER":162.0588,"MEAN_ANOMALY":198.0808,"EPHEMERIS_TYPE":0,"NORAD_CAT_ID":60509,"ELEMENT_SET_NO":999,"REV_AT_EPOCH":10766,"BSTAR":0.0007310765,"MEAN_MOTION_DOT":0.0003546,"MEAN_MOTION_DDOT":0},{"OBJECT_NAME":"FLOCK 4BE-2","OBJECT_ID":"2024-149AV","EPOCH":"2026-07-20T23:31:55.353792","CLASSIFICATION_TYPE":"U","MEAN_MOTION":15.56404659,"ECCENTRICITY":0.00054763,"INCLINATION":97.3817,"RA_OF_ASC_NODE":290.3344,"ARG_OF_PERICENTER":157.8276,"MEAN_ANOMALY":202.3216,"EPHEMERIS_TYPE":0,"NORAD_CAT_ID":60511,"ELEMENT_SET_NO":999,"REV_AT_EPOCH":10775,"BSTAR":0.00079713471,"MEAN_MOTION_DOT":0.00056508,"MEAN_MOTION_DDOT":0},{"OBJECT_NAME":"FLOCK 4BE-13","OBJECT_ID":"2024-149AW","EPOCH":"2026-07-21T03:39:45.436608","CLASSIFICATION_TYPE":"U","MEAN_MOTION":15.4272163,"ECCENTRICITY":0.00054561,"INCLINATION":97.3708,"RA_OF_ASC_NODE":286.9361,"ARG_OF_PERICENTER":138.8058,"MEAN_ANOMALY":221.3602,"EPHEMERIS_TYPE":0,"NORAD_CAT_ID":60512,"ELEMENT_SET_NO":999,"REV_AT_EPOCH":10760,"BSTAR":0.00025153101,"MEAN_MOTION_DOT":0.00010902,"MEAN_MOTION_DDOT":0},{"OBJECT_NAME":"FLOCK 4BE-27","OBJECT_ID":"2024-149AX","EPOCH":"2026-07-21T00:47:57.924384","CLASSIFICATION_TYPE":"U","MEAN_MOTION":15.34982443,"ECCENTRICITY":0.0004476,"INCLINATION":97.3814,"RA_OF_ASC_NODE":283.9121,"ARG_OF_PERICENTER":163.6845,"MEAN_ANOMALY":196.4543,"EPHEMERIS_TYPE":0,"NORAD_CAT_ID":60513,"ELEMENT_SET_NO":999,"REV_AT_EPOCH":10733,"BSTAR":0.00020902498,"MEAN_MOTION_DOT":0.00007014,"MEAN_MOTION_DDOT":0},{"OBJECT_NAME":"FLOCK 4BE-9","OBJECT_ID":"2024-149AY","EPOCH":"2026-07-20T23:31:08.893920","CLASSIFICATION_TYPE":"U","MEAN_MOTION":15.4174199,"ECCENTRICITY":0.00040966,"INCLINATION":97.378,"RA_OF_ASC_NODE":286.601,"ARG_OF_PERICENTER":157.0272,"MEAN_ANOMALY":203.1159,"EPHEMERIS_TYPE":0,"NORAD_CAT_ID":60514,"ELEMENT_SET_NO":999,"REV_AT_EPOCH":10752,"BSTAR":0.00032377054,"MEAN_MOTION_DOT":0.00013607,"MEAN_MOTION_DDOT":0},{"OBJECT_NAME":"FLOCK 4BE-6","OBJECT_ID":"2024-149BA","EPOCH":"2026-07-21T03:59:26.027808","CLASSIFICATION_TYPE":"U","MEAN_MOTION":15.40426856,"ECCENTRICITY":0.00047203,"INCLINATION":97.3774,"RA_OF_ASC_NODE":286.082,"ARG_OF_PERICENTER":155.7618,"MEAN_ANOMALY":204.3852,"EPHEMERIS_TYPE":0,"NORAD_CAT_ID":60516,"ELEMENT_SET_NO":999,"REV_AT_EPOCH":10750,"BSTAR":0.00029670585,"MEAN_MOTION_DOT":0.00011929,"MEAN_MOTION_DDOT":0},{"OBJECT_NAME":"FLOCK 4BE-14","OBJECT_ID":"2024-149BB","EPOCH":"2026-07-20T22:08:26.858976","CLASSIFICATION_TYPE":"U","MEAN_MOTION":15.41975158,"ECCENTRICITY":0.00058212,"INCLINATION":97.3683,"RA_OF_ASC_NODE":286.0047,"ARG_OF_PERICENTER":159.6283,"MEAN_ANOMALY":200.5198,"EPHEMERIS_TYPE":0,"NORAD_CAT_ID":60517,"ELEMENT_SET_NO":999,"REV_AT_EPOCH":10752,"BSTAR":0.00030051472,"MEAN_MOTION_DOT":0.00012724,"MEAN_MOTION_DDOT":0},{"OBJECT_NAME":"FLOCK 4BE-1","OBJECT_ID":"2024-149BC","EPOCH":"2026-07-21T03:53:20.315616","CLASSIFICATION_TYPE":"U","MEAN_MOTION":15.4364493,"ECCENTRICITY":0.00054766,"INCLINATION":97.3765,"RA_OF_ASC_NODE":287.6479,"ARG_OF_PERICENTER":158.4297,"MEAN_ANOMALY":201.7182,"EPHEMERIS_TYPE":0,"NORAD_CAT_ID":60518,"ELEMENT_SET_NO":999,"REV_AT_EPOCH":10761,"BSTAR":0.00031271593,"MEAN_MOTION_DOT":0.00014009,"MEAN_MOTION_DDOT":0},{"OBJECT_NAME":"FLOCK 4BE-28","OBJECT_ID":"2024-149BD","EPOCH":"2026-07-20T17:35:43.759104","CLASSIFICATION_TYPE":"U","MEAN_MOTION":15.46590317,"ECCENTRICITY":0.0005538,"INCLINATION":97.3733,"RA_OF_ASC_NODE":288.05,"ARG_OF_PERICENTER":159.3372,"MEAN_ANOMALY":200.8102,"EPHEMERIS_TYPE":0,"NORAD_CAT_ID":60519,"ELEMENT_SET_NO":999,"REV_AT_EPOCH":10762,"BSTAR":0.00059236605,"MEAN_MOTION_DOT":0.00029481,"MEAN_MOTION_DDOT":0},{"OBJECT_NAME":"FLOCK 4BE-5","OBJECT_ID":"2024-149CV","EPOCH":"2026-07-21T02:58:11.940384","CLASSIFICATION_TYPE":"U","MEAN_MOTION":15.41162607,"ECCENTRICITY":0.00044863,"INCLINATION":97.3832,"RA_OF_ASC_NODE":286.4708,"ARG_OF_PERICENTER":154.8466,"MEAN_ANOMALY":205.3,"EPHEMERIS_TYPE":0,"NORAD_CAT_ID":60559,"ELEMENT_SET_NO":999,"REV_AT_EPOCH":10750,"BSTAR":0.00030695444,"MEAN_MOTION_DOT":0.00012649,"MEAN_MOTION_DDOT":0}]}
